{"type": "FeatureCollection", "features": [ {"type": "Feature", "properties": {"norad_id": 34400, "name": "COSMOS 2251 DEB", "group": "cosmos-2251-debris", "lat": -25.78030669169842, "lon": -171.154593637814, "alt_km": 397.00034261432484, "timestamp": "2025-12-22T20:43:46.242363+00:00", "meta": {"OBJECT_NAME": "COSMOS 2251 DEB", "OBJECT_ID": "1993-036QR", "EPOCH": "2025-12-21T23:48:22.087584", "MEAN_MOTION": 15.57468025, "ECCENTRICITY": 0.0003063, "INCLINATION": 73.963, "RA_OF_ASC_NODE": 2.8018, "ARG_OF_PERICENTER": 231.6237, "MEAN_ANOMALY": 128.4704, "EPHEMERIS_TYPE": 0, "CLASSIFICATION_TYPE": "U", "NORAD_CAT_ID": 34400, "ELEMENT_SET_NO": 999, "REV_AT_EPOCH": 90118, "BSTAR": 0.0038028, "MEAN_MOTION_DOT": 0.0028987, "MEAN_MOTION_DDOT": 0}, "tle": {"line1": "1 34400U 93036QR  25355.99192231  .00289870  00000+0  38028-2 0  9994", "line2": "2 34400  73.9630   2.8018 0003063 231.6237 128.4704 15.57468025901184"}}, "geometry": {"type": "Point", "coordinates": [-171.154593637814, -25.78030669169842]}}, {"type": "Feature", "properties": {"norad_id": 34409, "name": "COSMOS 2251 DEB", "group": "cosmos-2251-debris", "lat": 21.054235067447802, "lon": 101.29543404777338, "alt_km": 751.8883471252811, "timestamp": "2025-12-22T20:43:46.242373+00:00", "meta": {"OBJECT_NAME": "COSMOS 2251 DEB", "OBJECT_ID": "1993-036RA", "EPOCH": "2025-12-21T21:12:42.172416", "MEAN_MOTION": 14.5804854, "ECCENTRICITY": 0.00802645, "INCLINATION": 74.0637, "RA_OF_ASC_NODE": 289.4706, "ARG_OF_PERICENTER": 1.4067, "MEAN_ANOMALY": 54.8119, "EPHEMERIS_TYPE": 0, "CLASSIFICATION_TYPE": "U", "NORAD_CAT_ID": 34409, "ELEMENT_SET_NO": 999, "REV_AT_EPOCH": 89326, "BSTAR": 0.00022339533, "MEAN_MOTION_DOT": 1.043e-05, "MEAN_MOTION_DDOT": 0}, "tle": {"line1": "1 34409U 93036RA  25355.88382144  .00001043  00000+0  22340-3 0  9990", "line2": "2 34409  74.0637 289.4706 0080264   1.4067  54.8119 14.58048540893268"}}, "geometry": {"type": "Point", "coordinates": [101.29543404777338, 21.054235067447802]}}, {"type": "Feature", "properties": {"norad_id": 34410, "name": "COSMOS 2251 DEB", "group": "cosmos-2251-debris", "lat": -73.71517902915966, "lon": 152.27524559460298, "alt_km": 527.7869324717785, "timestamp": "2025-12-22T20:43:46.242383+00:00", "meta": {"OBJECT_NAME": "COSMOS 2251 DEB", "OBJECT_ID": "1993-036RB", "EPOCH": "2025-12-22T10:51:08.173152", "MEAN_MOTION": 15.19777409, "ECCENTRICITY": 0.00213965, "INCLINATION": 73.7365, "RA_OF_ASC_NODE": 241.0308, "ARG_OF_PERICENTER": 80.7567, "MEAN_ANOMALY": 99.1271, "EPHEMERIS_TYPE": 0, "CLASSIFICATION_TYPE": "U", "NORAD_CAT_ID": 34410, "ELEMENT_SET_NO": 999, "REV_AT_EPOCH": 89921, "BSTAR": 0.0024483889, "MEAN_MOTION_DOT": 0.00053078, "MEAN_MOTION_DDOT": 0}, "tle": {"line1": "1 34410U 93036RB  25356.45217793  .00053078  00000+0  24484-2 0  9998", "line2": "2 34410  73.7365 241.0308 0021396  80.7567  99.1271 15.19777409899215"}}, "geometry": {"type": "Point", "coordinates": [152.27524559460298, -73.71517902915966]}}, {"type": "Feature", "properties": {"norad_id": 34412, "name": "COSMOS 2251 DEB", "group": "cosmos-2251-debris", "lat": -28.252814756109135, "lon": -63.3313161146618, "alt_km": 687.3325566645199, "timestamp": "2025-12-22T20:43:46.242394+00:00", "meta": {"OBJECT_NAME": "COSMOS 2251 DEB", "OBJECT_ID": "1993-036RD", "EPOCH": "2025-12-22T14:13:35.844672", "MEAN_MOTION": 14.4724847, "ECCENTRICITY": 0.01875767, "INCLINATION": 73.949, "RA_OF_ASC_NODE": 306.0781, "ARG_OF_PERICENTER": 38.8594, "MEAN_ANOMALY": 322.5877, "EPHEMERIS_TYPE": 0, "CLASSIFICATION_TYPE": "U", "NORAD_CAT_ID": 34412, "ELEMENT_SET_NO": 999, "REV_AT_EPOCH": 87793, "BSTAR": 0.0016240392, "MEAN_MOTION_DOT": 7.383e-05, "MEAN_MOTION_DDOT": 0}, "tle": {"line1": "1 34412U 93036RD  25356.59277598  .00007383  00000+0  16240-2 0  9993", "line2": "2 34412  73.9490 306.0781 0187576  38.8594 322.5877 14.47248470877933"}}, "geometry": {"type": "Point", "coordinates": [-63.3313161146618, -28.252814756109135]}}, {"type": "Feature", "properties": {"norad_id": 34413, "name": "COSMOS 2251 DEB", "group": "cosmos-2251-debris", "lat": 12.995791775650892, "lon": 62.70159144816177, "alt_km": 854.1610675453312, "timestamp": "2025-12-22T20:43:46.242404+00:00", "meta": {"OBJECT_NAME": "COSMOS 2251 DEB", "OBJECT_ID": "1993-036RE", "EPOCH": "2025-12-22T03:44:12.693408", "MEAN_MOTION": 14.29164987, "ECCENTRICITY": 0.00909653, "INCLINATION": 74.0306, "RA_OF_ASC_NODE": 247.7764, "ARG_OF_PERICENTER": 322.5234, "MEAN_ANOMALY": 162.9418, "EPHEMERIS_TYPE": 0, "CLASSIFICATION_TYPE": "U", "NORAD_CAT_ID": 34413, "ELEMENT_SET_NO": 999, "REV_AT_EPOCH": 87265, "BSTAR": 0.0012658847, "MEAN_MOTION_DOT": 3.334e-05, "MEAN_MOTION_DDOT": 0}, "tle": {"line1": "1 34413U 93036RE  25356.15570247  .00003334  00000+0  12659-2 0  9995", "line2": "2 34413  74.0306 247.7764 0090965 322.5234 162.9418 14.29164987872654"}}, "geometry": {"type": "Point", "coordinates": [62.70159144816177, 12.995791775650892]}}, {"type": "Feature", "properties": {"norad_id": 34420, "name": "COSMOS 2251 DEB", "group": "cosmos-2251-debris", "lat": -62.30557117446289, "lon": -62.56705594706209, "alt_km": 618.9691966723867, "timestamp": "2025-12-22T20:43:46.242414+00:00", "meta": {"OBJECT_NAME": "COSMOS 2251 DEB", "OBJECT_ID": "1993-036RM", "EPOCH": "2025-12-22T10:22:45.502176", "MEAN_MOTION": 14.68324875, "ECCENTRICITY": 0.01062082, "INCLINATION": 74.0334, "RA_OF_ASC_NODE": 85.2107, "ARG_OF_PERICENTER": 204.0458, "MEAN_ANOMALY": 283.4636, "EPHEMERIS_TYPE": 0, "CLASSIFICATION_TYPE": "U", "NORAD_CAT_ID": 34420, "ELEMENT_SET_NO": 999, "REV_AT_EPOCH": 89912, "BSTAR": 0.00020630505, "MEAN_MOTION_DOT": 1.262e-05, "MEAN_MOTION_DDOT": 0}, "tle": {"line1": "1 34420U 93036RM  25356.43247109  .00001262  00000+0  20631-3 0  9990", "line2": "2 34420  74.0334  85.2107 0106208 204.0458 283.4636 14.68324875899128"}}, "geometry": {"type": "Point", "coordinates": [-62.56705594706209, -62.30557117446289]}}, {"type": "Feature", "properties": {"norad_id": 34425, "name": "COSMOS 2251 DEB", "group": "cosmos-2251-debris", "lat": 65.16166062757529, "lon": 176.85991633946952, "alt_km": 668.2849969054596, "timestamp": "2025-12-22T20:43:46.242424+00:00", "meta": {"OBJECT_NAME": "COSMOS 2251 DEB", "OBJECT_ID": "1993-036RS", "EPOCH": "2025-12-22T12:01:15.618144", "MEAN_MOTION": 14.62177613, "ECCENTRICITY": 0.00242498, "INCLINATION": 74.0192, "RA_OF_ASC_NODE": 35.8064, "ARG_OF_PERICENTER": 159.5144, "MEAN_ANOMALY": 200.7001, "EPHEMERIS_TYPE": 0, "CLASSIFICATION_TYPE": "U", "NORAD_CAT_ID": 34425, "ELEMENT_SET_NO": 999, "REV_AT_EPOCH": 88883, "BSTAR": 0.00050788058, "MEAN_MOTION_DOT": 2.537e-05, "MEAN_MOTION_DDOT": 0}, "tle": {"line1": "1 34425U 93036RS  25356.50087521  .00002537  00000+0  50788-3 0  9995", "line2": "2 34425  74.0192  35.8064 0024249 159.5144 200.7001 14.62177613888832"}}, "geometry": {"type": "Point", "coordinates": [176.85991633946952, 65.16166062757529]}}, {"type": "Feature", "properties": {"norad_id": 34429, "name": "COSMOS 2251 DEB", "group": "cosmos-2251-debris", "lat": -67.02017074152121, "lon": 8.621747899565385, "alt_km": 436.35865339296106, "timestamp": "2025-12-22T20:43:46.242434+00:00", "meta": {"OBJECT_NAME": "COSMOS 2251 DEB", "OBJECT_ID": "1993-036RW", "EPOCH": "2025-12-22T12:07:24.083040", "MEAN_MOTION": 15.45583455, "ECCENTRICITY": 0.00125033, "INCLINATION": 73.967, "RA_OF_ASC_NODE": 146.7074, "ARG_OF_PERICENTER": 347.103, "MEAN_ANOMALY": 71.8489, "EPHEMERIS_TYPE": 0, "CLASSIFICATION_TYPE": "U", "NORAD_CAT_ID": 34429, "ELEMENT_SET_NO": 999, "REV_AT_EPOCH": 89599, "BSTAR": 0.0058284325, "MEAN_MOTION_DOT": 0.00291912, "MEAN_MOTION_DDOT": 0}, "tle": {"line1": "1 34429U 93036RW  25356.50513985  .00291912  00000+0  58284-2 0  9992", "line2": "2 34429  73.9670 146.7074 0012503 347.1030  71.8489 15.45583455895996"}}, "geometry": {"type": "Point", "coordinates": [8.621747899565385, -67.02017074152121]}}, {"type": "Feature", "properties": {"norad_id": 34430, "name": "COSMOS 2251 DEB", "group": "cosmos-2251-debris", "lat": 27.166801509958376, "lon": 96.2440368356359, "alt_km": 798.8266839810603, "timestamp": "2025-12-22T20:43:46.242444+00:00", "meta": {"OBJECT_NAME": "COSMOS 2251 DEB", "OBJECT_ID": "1993-036RX", "EPOCH": "2025-12-22T11:41:24.086112", "MEAN_MOTION": 14.39660533, "ECCENTRICITY": 0.00608004, "INCLINATION": 74.0517, "RA_OF_ASC_NODE": 285.3774, "ARG_OF_PERICENTER": 352.7371, "MEAN_ANOMALY": 7.2896, "EPHEMERIS_TYPE": 0, "CLASSIFICATION_TYPE": "U", "NORAD_CAT_ID": 34430, "ELEMENT_SET_NO": 999, "REV_AT_EPOCH": 88095, "BSTAR": 0.00042270941, "MEAN_MOTION_DOT": 1.325e-05, "MEAN_MOTION_DDOT": 0}, "tle": {"line1": "1 34430U 93036RX  25356.48708433  .00001325  00000+0  42271-3 0  9992", "line2": "2 34430  74.0517 285.3774 0060800 352.7371   7.2896 14.39660533880950"}}, "geometry": {"type": "Point", "coordinates": [96.2440368356359, 27.166801509958376]}}, {"type": "Feature", "properties": {"norad_id": 34431, "name": "COSMOS 2251 DEB", "group": "cosmos-2251-debris", "lat": 16.31955177095594, "lon": 161.66945424894007, "alt_km": 822.1063610474002, "timestamp": "2025-12-22T20:43:46.242454+00:00", "meta": {"OBJECT_NAME": "COSMOS 2251 DEB", "OBJECT_ID": "1993-036RY", "EPOCH": "2025-12-22T12:14:51.057888", "MEAN_MOTION": 14.2880635, "ECCENTRICITY": 0.00678324, "INCLINATION": 74.0739, "RA_OF_ASC_NODE": 157.5134, "ARG_OF_PERICENTER": 140.6191, "MEAN_ANOMALY": 219.992, "EPHEMERIS_TYPE": 0, "CLASSIFICATION_TYPE": "U", "NORAD_CAT_ID": 34431, "ELEMENT_SET_NO": 999, "REV_AT_EPOCH": 87282, "BSTAR": 0.00063911278, "MEAN_MOTION_DOT": 1.626e-05, "MEAN_MOTION_DDOT": 0}, "tle": {"line1": "1 34431U 93036RY  25356.51031317  .00001626  00000+0  63911-3 0  9995", "line2": "2 34431  74.0739 157.5134 0067832 140.6191 219.9920 14.28806350872827"}}, "geometry": {"type": "Point", "coordinates": [161.66945424894007, 16.31955177095594]}}]}